317P/WISE,e,11.9564,275.4762,334.8244,2.962068,0.1933355,0.57073273,188.9324,05/31.0/2023,2000,g 17.5,4.0
# From MPC102103
318P/McNaught-Hartley,e,17.8895,35.5011,313.3535,7.506402,0.0479244,0.67486896,132.9335,05/31.0/2023,2000,g  8.5,6.0
# From MPC 97499
319P/Catalina-McNaught,e,15.0956,111.3613,203.6560,3.564539,0.1464532,0.66649261,62.3362,05/31.0/2023,2000,g 15.0,4.0
# From MPC 96281
320P/McNaught,e,4.9043,295.9492,0.7830,3.094495,0.1810587,0.68511583,156.4780,05/31.0/2023,2000,g 20.5,4.0
# From MPC105243
321P/SOHO,e,20.0780,165.0179,172.7447,2.423031,0.2613158,0.98106892,0.0000,10/26.6078/2023,2000,g 20.0,4.0
# From MPC102103
322P/SOHO,e,11.4645,351.4904,56.9237,2.507348,0.2482460,0.97997926,0.0000,08/21.0864/2023,2000,g 19.0,4.0
# From MPEC 2016-Y36
323P/SOHO,e,5.3144,324.4147,353.0264,2.583327,0.2373750,0.98472453,0.0000,03/14.4440/2025,2000,g 20.0,4.0
# From MPEC 2021-W31
324P/LaSagra,e,21.4023,270.5843,57.5451,3.094793,0.1810326,0.15355534,136.8622,05/31.0/2023,2000,g 13.0,4.0
# From MPEC 2022-TA0
325P/Yang-Gao,e,16.7054,257.4034,343.9953,3.529661,0.1486294,0.59353092,63.5610,05/31.0/2023,2000,g 14.0,4.0
# From MPC103849
326P/Hill,e,2.4711,99.8079,278.6461,4.063481,0.1203252,0.31843151,334.3136,05/31.0/2023,2000,g 13.5,4.0
# From MPEC 2023-B57
327P/VanNess,e,36.2504,173.9839,185.0182,3.561759,0.1466247,0.56311934,39.6831,05/31.0/2023,2000,g 16.0,4.0
# From MPC109148
328P/LONEOS-Tucker,e,17.6723,341.6189,30.6070,4.189928,0.1149196,0.55273497,311.2837,05/31.0/2023,2000,g 14.5,4.0
# From MPC101101
329P/LINEAR-Catalina,e,21.7119,87.6539,343.5583,5.187388,0.0834221,0.67838621,228.3063,05/31.0/2023,2000,g 13.5,4.0
# From MPEC 2023-J29
330P/Catalina,e,15.7153,293.0805,188.8369,6.621188,0.0578496,0.54917482,142.8259,05/31.0/2023,2000,g 12.0,4.0
# From MPEC 2023-KD6
331P/Gibbs,e,9.7399,216.7518,184.6178,3.005165,0.1891915,0.04132538,183.2981,05/31.0/2023,2000,g 12.0,4.0
# From MPEC 2016-K18
332P/Ikeya-Murakami,e,9.3804,3.7819,152.2939,3.087442,0.1816794,0.48929755,118.2259,05/31.0/2023,2000,g 18.0,4.0
# From MPEC 2016-EI8
332P-B/Ikeya-Murakami,e,9.3805,3.8028,152.3711,3.082329,0.1821317,0.48970701,359.9699,03/17.0/2016,2000,g 19.0,4.0
# From MPEC 2016-K18
332P-C/Ikeya-Murakami,e,9.3795,3.7823,152.2851,3.087408,0.1816824,0.48930305,118.2420,05/31.0/2023,2000,g 16.5,4.0
# From MPEC 2016-ED0
332P-D/Ikeya-Murakami,e,9.3761,3.7923,152.4393,3.081138,0.1822373,0.48977814,359.9486,03/17.0/2016,2000,g 19.0,4.0
# From MPEC 2016-ED0
332P-E/Ikeya-Murakami,e,9.3774,3.8228,152.2825,3.079877,0.1823493,0.48922008,359.9889,03/17.0/2016,2000,g 21.0,4.0
# From MPEC 2016-ED0
332P-F/Ikeya-Murakami,e,9.5293,3.4757,152.8203,3.163214,0.1751908,0.49918860,359.8501,03/17.0/2016,2000,g 21.0,4.0
# From MPEC 2016-ED0
332P-G/Ikeya-Murakami,e,9.2523,3.6955,154.4000,3.050519,0.1849880,0.49200362,359.9006,03/19.0/2016,2000,g 19.0,4.0
# From MPC100285
332P-H/Ikeya-Murakami,e,9.3800,3.7820,152.2858,3.087591,0.1816663,0.48933852,118.1664,05/31.0/2023,2000,g 19.0,4.0
# From MPEC 2016-ED0
332P-I/Ikeya-Murakami,e,9.3791,3.8048,152.3297,3.081767,0.1821815,0.48955490,359.9360,03/17.0/2016,2000,g 20.5,2.0
# From MPEC 2016-EI8
332P-J/Ikeya-Murakami,e,9.4296,3.6729,152.7712,3.115165,0.1792596,0.49429435,359.8613,03/17.0/2016,2000,g 20.5,2.0
# From MPEC 2020-L06
333P/LINEAR,e,132.0152,115.6770,25.9894,4.221526,0.1136318,0.73636972,297.7008,05/31.0/2023,2000,g 15.0,4.0
# From MPEC 2023-J29
334P/NEAT,e,20.3885,90.5528,90.0741,6.834251,0.0551655,0.35063981,120.6835,05/31.0/2023,2000,g 10.5,4.0
# From MPEC 2023-KD6
335P/Gibbs,e,7.2928,330.8403,162.3041,3.578444,0.1456005,0.54627374,42.5141,05/31.0/2023,2000,g 17.0,4.0
# From MPC105244
336P/McNaught,e,17.8242,298.2751,308.6569,5.036749,0.0871924,0.44384135,201.6784,05/31.0/2023,2000,g 13.5,4.0
# From MPEC 2023-J29
337P/WISE,e,15.3680,105.9898,161.1779,3.289787,0.1651781,0.49709608,55.1095,05/31.0/2023,2000,g 17.0,4.0
# From MPEC 2023-J29
338P/McNaught,e,25.3862,9.7974,4.5274,3.892928,0.1283185,0.41214299,304.8382,05/31.0/2023,2000,g 12.0,4.0
# From MPC101101
339P/Gibbs,e,5.7332,172.7231,27.4644,3.700658,0.1384476,0.63566868,347.2697,05/31.0/2023,2000,g 17.0,4.0
# From MPC133426
340P/Boattini,e,2.0781,291.7008,35.9917,4.249824,0.1124987,0.28063070,267.6571,05/31.0/2023,2000,g 14.3,4.0
# From MPEC 2023-J29
341P/Gibbs,e,3.7971,29.9677,312.2860,4.289886,0.1109265,0.41567048,283.1969,05/31.0/2023,2000,g 12.5,4.0
# From MPC101101
342P/SOHO,e,11.6665,27.7077,73.2509,3.041210,0.1858380,0.98282681,0.0000,10/19.2894/2021,2000,g  9.0,4.0
# From MPEC 2023-J29
343P/NEAT-LONEOS,e,5.5928,257.0930,137.5144,5.457753,0.0773007,0.58523840,178.5815,05/31.0/2023,2000,g 14.0,4.0
# From MPEC 2023-J29
344P/Read,e,3.4961,273.1110,140.4765,4.860096,0.0919892,0.42342440,220.6001,05/31.0/2023,2000,g 13.0,4.0
# From MPEC 2022-K19
345P/LINEAR,e,2.7275,154.5124,196.6497,4.033727,0.1216590,0.22146009,304.3476,05/31.0/2023,2000,g 12.0,4.0
# From MPEC 2022-K19
346P/Catalina,e,22.2078,102.4518,335.9732,4.472515,0.1042021,0.50345631,239.2909,05/31.0/2023,2000,g 14.0,4.0
# From MPEC 2022-K19
347P/PANSTARRS,e,11.7537,261.0169,98.4324,3.605169,0.1439845,0.38629850,352.7921,05/31.0/2023,2000,g 15.0,4.0
# From MPEC 2022-ED3
348P/PANSTARRS,e,17.7366,312.9320,135.6967,3.151874,0.1761371,0.30715269,83.1982,05/31.0/2023,2000,g 14.0,4.0
# From MPEC 2022-K19
349P/Lemmon,e,5.4895,331.7569,255.8498,3.577089,0.1456832,0.29842354,307.2121,05/31.0/2023,2000,g 14.0,4.0
# From MPC111775
350P/McNaught,e,7.3650,65.2945,139.7447,4.083270,0.1194516,0.09378835,238.1291,05/31.0/2023,2000,g 14.0,4.0
# From MPC105244
351P/Wiegert-PANSTARRS,e,12.7777,283.4124,352.6536,4.439799,0.1053559,0.29497876,289.8747,05/31.0/2023,2000,g 12.5,4.0
# From MPEC 2023-J29
352P/Skiff,e,21.0147,27.9997,309.3773,6.648322,0.0574958,0.61759862,124.6747,05/31.0/2023,2000,g 13.2,4.0
# From MPEC 2020-AA5
353P/McNaught,e,28.4085,121.5122,230.4986,4.170590,0.1157199,0.47029148,229.6052,05/31.0/2023,2000,g 14.5,4.0
# From MPC105545
354P/LINEAR,e,5.2506,320.0890,132.6500,2.290592,0.2843038,0.12486216,321.3969,05/31.0/2023,2000,g 15.5,4.0
# From MPEC 2023-CD7
355P/LINEAR-NEAT,e,11.0471,51.4338,336.3247,3.468883,0.1525526,0.50790431,313.2560,05/31.0/2023,2000,g 15.5,2.0
# From MPEC 2022-F14
356P/WISE,e,9.6373,160.7879,226.0863,4.156191,0.1163217,0.35599607,231.1531,05/31.0/2023,2000,g 14.0,4.0
# From MPC114609
357P/Hill,e,6.3165,44.5581,1.4214,4.457367,0.1047337,0.43592630,191.1927,05/31.0/2023,2000,g 15.5,4.0
# From MPEC 2020-HN5
358P/PANSTARRS,e,11.0598,85.6978,299.7555,3.147435,0.1765099,0.23915521,331.0422,05/31.0/2023,2000,g 18.0,4.0
# From MPC110086
359P/LONEOS,e,10.2642,149.7467,200.2973,4.640504,0.0985953,0.32398626,207.6755,05/31.0/2023,2000,g 13.5,4.0
# From MPC108599
360P/WISE,e,24.1103,2.1887,354.2218,3.699204,0.1385293,0.49929013,291.8926,05/31.0/2023,2000,g 19.5,6.0
# From MPEC 2023-CD7
361P/Spacewatch,e,13.9035,203.2594,219.0130,4.934729,0.0899102,0.43921529,161.0908,05/31.0/2023,2000,g 12.0,4.0
# From MPEC 2017-V13
362P/,e,15.5569,192.5452,53.5575,3.972648,0.1244755,0.27870482,308.1618,05/31.0/2023,2000,g 12.9,2.0
# From MPC114609
363P/Lemmon,e,5.4005,146.8624,340.8543,3.570899,0.1460621,0.51946364,282.2592,05/31.0/2023,2000,g 17.5,4.0
# From MPEC 2023-J95
364P/PANSTARRS,e,12.1376,46.1480,212.0203,2.879321,0.2017293,0.72170975,3.4257,05/31.0/2023,2000,g 17.0,2.0
# From MPC111775
365P/PANSTARRS,e,9.8446,86.3066,67.7696,3.156096,0.1757838,0.58131587,336.9056,05/31.0/2023,2000,g 17.0,4.0
# From MPC114610
366P/Spacewatch,e,8.8569,70.7628,153.0221,3.497328,0.1506953,0.34813105,267.8980,05/31.0/2023,2000,g 15.0,4.0
# From MPC112395
367P/Catalina,e,8.4592,58.7169,172.7595,3.508426,0.1499808,0.27973739,271.2097,05/31.0/2023,2000,g 17.5,2.0
# From MPC114610
368P/NEAT,e,15.4835,257.8270,118.9578,5.530470,0.0757811,0.62667551,130.2045,05/31.0/2023,2000,g 14.0,4.0
# From MPC114610
369P/Hill,e,10.3250,47.2926,13.1630,4.381080,0.1074811,0.55558084,181.3219,05/31.0/2023,2000,g 15.0,4.0
# From MPEC 2021-F20
370P/NEAT,e,19.4283,55.0645,356.7225,6.435399,0.0603727,0.61544020,109.5567,05/31.0/2023,2000,g 13.0,4.0
# From MPC114610
371P/LINEAR-Skiff,e,17.3874,67.2353,308.5812,4.180638,0.1153029,0.47708006,195.7117,05/31.0/2023,2000,g 16.0,4.0
# From MPEC 2020-K19
372P/McNaught,e,9.5050,325.8139,27.6858,4.508842,0.1029453,0.15231156,172.8956,05/31.0/2023,2000,g 13.5,4.0
# From MPEC 2021-F20
373P/Rinner,e,13.7705,231.9661,221.0036,3.800257,0.1330407,0.39311270,201.2367,05/31.0/2023,2000,g 14.5,4.0
# From MPC114610
374P/Larson,e,10.7658,7.9112,51.4618,4.971343,0.0889188,0.46352902,142.2403,05/31.0/2023,2000,g 14.0,4.0
# From MPEC 2021-F20
375P/Hill,e,17.3623,359.9348,119.3634,5.549009,0.0754017,0.65917395,122.2887,05/31.0/2023,2000,g 16.0,4.0
# From MPEC 2022-K19
376P/LONEOS,e,1.1683,313.2334,285.1830,5.762044,0.0712589,0.51531490,96.1536,05/31.0/2023,2000,g 12.5,4.0
# From MPEC 2022-N37
377P/Scotti,e,9.0241,226.0636,354.9839,6.701986,0.0568066,0.25123968,59.8757,05/31.0/2023,2000,g  9.5,4.0
# From MPEC 2023-D41
378P/McNaught,e,19.0791,93.9963,193.5517,6.316007,0.0620926,0.46687764,59.4795,05/31.0/2023,2000,g 12.0,4.0
# From MPC115889
379P/Spacewatch,e,12.4481,183.8207,30.5882,3.502463,0.1503640,0.34611863,209.6046,05/31.0/2023,2000,g 15.0,4.0
# From MPEC 2023-C45
380P/PANSTARRS,e,8.0433,130.0349,87.0059,4.409026,0.1064609,0.34302933,157.2086,05/31.0/2023,2000,g 12.5,4.0
# From MPEC 2021-J28
381P/LINEAR-Spacewatch,e,28.3751,173.7661,173.3128,7.138825,0.0516730,0.68165856,69.3420,05/31.0/2023,2000,g 17.5,2.0
# From MPEC 2022-Y15
382P/Larson,e,8.3854,173.4098,164.4390,6.095627,0.0654902,0.28210159,34.4865,05/31.0/2023,2000,g  8.0,4.0
# From MPEC 2022-OB6
383P/Christensen,e,12.3266,207.8185,133.7889,3.547286,0.1475230,0.59922784,193.6162,05/31.0/2023,2000,g 18.0,4.0
# From MPEC 2022-OB6
384P/Kowalski,e,7.2834,354.2175,37.6604,2.899536,0.1996234,0.61625306,264.7543,05/31.0/2023,2000,g 19.5,4.0
# From MPEC 2021-F20
